start=new Date('2021-08-22T00:00:00.000Z').valueOf();
sats=[{"BSTAR":"-0.00002746500000","SITE":"AFETR","MEAN_ANOMALY":"280.7408","INCLINATION":"53.0567","TIME_SYSTEM":"UTC","OBJECT_TYPE":"PAYLOAD","ECCENTRICITY":"0.00020280","NORAD_CAT_ID":"45755","TLE_LINE1":"1 45755U 20038AB  21233.93589126 -.00000691  00000-0 -27465-4 0  9999","OBJECT_NAME":"STARLINK-1478","MEAN_MOTION":"15.06394154","EPOCH":"2021-08-21T22:27:41.004864","CENTER_NAME":"EARTH","PERIAPSIS":"545.827","PERIOD":"95.593","RA_OF_ASC_NODE":"112.0457","MEAN_ELEMENT_THEORY":"SGP4","DECAY_DATE":null,"FILE":"3101032","REF_FRAME":"TEME","GP_ID":"183211463","TLE_LINE2":"2 45755  53.0567 112.0457 0002028  79.3809 280.7408 15.06394154 66157","MEAN_MOTION_DOT":"-0.00000691","SEMIMAJOR_AXIS":"6925.366","APOAPSIS":"548.636","EPHEMERIS_TYPE":"0","CLASSIFICATION_TYPE":"U","RCS_SIZE":"LARGE","OBJECT_ID":"2020-038AB","MEAN_MOTION_DDOT":"0.0000000000000","LAUNCH_DATE":"2020-06-13","COUNTRY_CODE":"US","ARG_OF_PERICENTER":"79.3809","ELEMENT_SET_NO":"999","REV_AT_EPOCH":"6615"},{"EPHEMERIS_TYPE":"0","CLASSIFICATION_TYPE":"U","OBJECT_ID":"2020-038AC","MEAN_MOTION_DDOT":"0.0000000000000","RCS_SIZE":"LARGE","TLE_LINE2":"2 45756  53.0542 111.4588 0001909  79.6013 280.5191 15.06396457 67297","GP_ID":"183218069","APOAPSIS":"548.546","MEAN_MOTION_DOT":"-0.00000456","SEMIMAJOR_AXIS":"6925.359","REV_AT_EPOCH":"6729","ARG_OF_PERICENTER":"79.6013","LAUNCH_DATE":"2020-06-13","COUNTRY_CODE":"US","ELEMENT_SET_NO":"999","ECCENTRICITY":"0.00019090","OBJECT_TYPE":"PAYLOAD","NORAD_CAT_ID":"45756","BSTAR":"-0.00001172000000","MEAN_ANOMALY":"280.5191","SITE":"AFETR","INCLINATION":"53.0542","TIME_SYSTEM":"UTC","RA_OF_ASC_NODE":"111.4588","MEAN_ELEMENT_THEORY":"SGP4","PERIAPSIS":"545.902","PERIOD":"95.592","REF_FRAME":"TEME","DECAY_DATE":null,"FILE":"3101108","MEAN_MOTION":"15.06396457","TLE_LINE1":"1 45756U 20038AC  21234.06489593 -.00000456  00000-0 -11720-4 0  9998","OBJECT_NAME":"STARLINK-1484","EPOCH":"2021-08-22T01:33:27.008352","CENTER_NAME":"EARTH"},{"REV_AT_EPOCH":"6729","COUNTRY_CODE":"US","LAUNCH_DATE":"2020-06-13","ARG_OF_PERICENTER":"51.2887","ELEMENT_SET_NO":"999","CLASSIFICATION_TYPE":"U","EPHEMERIS_TYPE":"0","RCS_SIZE":"LARGE","MEAN_MOTION_DDOT":"0.0000000000000","OBJECT_ID":"2020-038AD","GP_ID":"183217577","TLE_LINE2":"2 45757  53.0563 111.3813 0002260  51.2887 308.8304 15.06398258 67298","SEMIMAJOR_AXIS":"6925.354","MEAN_MOTION_DOT":"0.00000807","APOAPSIS":"548.784","PERIOD":"95.592","PERIAPSIS":"545.654","MEAN_ELEMENT_THEORY":"SGP4","RA_OF_ASC_NODE":"111.3813","DECAY_DATE":null,"FILE":"3101109","REF_FRAME":"TEME","TLE_LINE1":"1 45757U 20038AD  21234.08332787  .00000807  00000-0  73103-4 0  9994","MEAN_MOTION":"15.06398258","OBJECT_NAME":"STARLINK-1486","EPOCH":"2021-08-22T01:59:59.527968","CENTER_NAME":"EARTH","OBJECT_TYPE":"PAYLOAD","ECCENTRICITY":"0.00022600","NORAD_CAT_ID":"45757","MEAN_ANOMALY":"308.8304","SITE":"AFETR","BSTAR":"0.00007310300000","TIME_SYSTEM":"UTC","INCLINATION":"53.0563"},{"APOAPSIS":"548.781","MEAN_MOTION_DOT":"-0.00000473","SEMIMAJOR_AXIS":"6925.365","TLE_LINE2":"2 45758  53.0568 111.4105 0002239  71.6197 288.5035 15.06394604 67291","GP_ID":"183217579","OBJECT_ID":"2020-038AE","MEAN_MOTION_DDOT":"0.0000000000000","RCS_SIZE":"LARGE","EPHEMERIS_TYPE":"0","CLASSIFICATION_TYPE":"U","ELEMENT_SET_NO":"999","ARG_OF_PERICENTER":"71.6197","LAUNCH_DATE":"2020-06-13","COUNTRY_CODE":"US","REV_AT_EPOCH":"6729","INCLINATION":"53.0568","TIME_SYSTEM":"UTC","BSTAR":"-0.00001282700000","SITE":"AFETR","MEAN_ANOMALY":"288.5035","NORAD_CAT_ID":"45758","ECCENTRICITY":"0.00022390","OBJECT_TYPE":"PAYLOAD","CENTER_NAME":"EARTH","MEAN_MOTION":"15.06394604","TLE_LINE1":"1 45758U 20038AE  21234.07595583 -.00000473  00000-0 -12827-4 0  9996","EPOCH":"2021-08-22T01:49:22.583712","OBJECT_NAME":"STARLINK-1487","REF_FRAME":"TEME","DECAY_DATE":null,"FILE":"3101109","RA_OF_ASC_NODE":"111.4105","MEAN_ELEMENT_THEORY":"SGP4","PERIAPSIS":"545.680","PERIOD":"95.592"},{"BSTAR":"-0.00003094900000","MEAN_ANOMALY":"281.5509","SITE":"AFETR","INCLINATION":"53.0554","TIME_SYSTEM":"UTC","OBJECT_TYPE":"PAYLOAD","ECCENTRICITY":"0.00019790","NORAD_CAT_ID":"45759","TLE_LINE1":"1 45759U 20038AF  21233.92483810 -.00000743  00000-0 -30949-4 0  9994","EPOCH":"2021-08-21T22:11:46.011840","MEAN_MOTION":"15.06392924","OBJECT_NAME":"STARLINK-1493","CENTER_NAME":"EARTH","PERIAPSIS":"545.865","PERIOD":"95.593","RA_OF_ASC_NODE":"112.0965","MEAN_ELEMENT_THEORY":"SGP4","DECAY_DATE":null,"FILE":"3101032","REF_FRAME":"TEME","GP_ID":"183211964","TLE_LINE2":"2 45759  53.0554 112.0965 0001979  78.5702 281.5509 15.06392924 66152","MEAN_MOTION_DOT":"-0.00000743","SEMIMAJOR_AXIS":"6925.370","APOAPSIS":"548.606","EPHEMERIS_TYPE":"0","CLASSIFICATION_TYPE":"U","RCS_SIZE":"LARGE","OBJECT_ID":"2020-038AF","MEAN_MOTION_DDOT":"0.0000000000000","LAUNCH_DATE":"2020-06-13","COUNTRY_CODE":"US","ARG_OF_PERICENTER":"78.5702","ELEMENT_SET_NO":"999","REV_AT_EPOCH":"6615"},{"OBJECT_TYPE":"PAYLOAD","ECCENTRICITY":"0.00021200","NORAD_CAT_ID":"45760","BSTAR":"-0.00003354800000","SITE":"AFETR","MEAN_ANOMALY":"285.9720","INCLINATION":"53.0567","TIME_SYSTEM":"UTC","PERIAPSIS":"545.762","PERIOD":"95.592","RA_OF_ASC_NODE":"111.7771","MEAN_ELEMENT_THEORY":"SGP4","FILE":"3101110","DECAY_DATE":null,"REF_FRAME":"TEME","TLE_LINE1":"1 45760U 20038AG  21233.99486675 -.00000781  00000-0 -33548-4 0  9995","EPOCH":"2021-08-21T23:52:36.487200","MEAN_MOTION":"15.06394536","OBJECT_NAME":"STARLINK-1494","CENTER_NAME":"EARTH","EPHEMERIS_TYPE":"0","CLASSIFICATION_TYPE":"U","RCS_SIZE":"LARGE","OBJECT_ID":"2020-038AG","MEAN_MOTION_DDOT":"0.0000000000000","GP_ID":"183217589","TLE_LINE2":"2 45760  53.0567 111.7771 0002120  74.1502 285.9720 15.06394536 67096","MEAN_MOTION_DOT":"-0.00000781","SEMIMAJOR_AXIS":"6925.365","APOAPSIS":"548.698","REV_AT_EPOCH":"6709","LAUNCH_DATE":"2020-06-13","COUNTRY_CODE":"US","ARG_OF_PERICENTER":"74.1502","ELEMENT_SET_NO":"999"},{"ELEMENT_SET_NO":"999","ARG_OF_PERICENTER":"52.1879","COUNTRY_CODE":"US","LAUNCH_DATE":"2020-06-13","REV_AT_EPOCH":"6713","APOAPSIS":"464.775","SEMIMAJOR_AXIS":"6841.693","MEAN_MOTION_DOT":"0.00392926","TLE_LINE2":"2 45761  53.0580 109.6146 0001778  52.1879 307.9282 15.34113050 67139","GP_ID":"183217586","MEAN_MOTION_DDOT":"0.0000000000000","OBJECT_ID":"2020-038AH","RCS_SIZE":"LARGE","CLASSIFICATION_TYPE":"U","EPHEMERIS_TYPE":"0","CENTER_NAME":"EARTH","OBJECT_NAME":"STARLINK-1495","TLE_LINE1":"1 45761U 20038AH  21234.03181314  .00392926  00000-0  11144-1 0  9992","MEAN_MOTION":"15.34113050","EPOCH":"2021-08-22T00:45:48.655296","REF_FRAME":"TEME","FILE":"3101110","DECAY_DATE":null,"MEAN_ELEMENT_THEORY":"SGP4","RA_OF_ASC_NODE":"109.6146","PERIOD":"93.865","PERIAPSIS":"462.342","TIME_SYSTEM":"UTC","INCLINATION":"53.0580","SITE":"AFETR","MEAN_ANOMALY":"307.9282","BSTAR":"0.01114400000000","NORAD_CAT_ID":"45761","ECCENTRICITY":"0.00017780","OBJECT_TYPE":"PAYLOAD"},{"PERIAPSIS":"545.572","PERIOD":"95.592","RA_OF_ASC_NODE":"112.8053","MEAN_ELEMENT_THEORY":"SGP4","DECAY_DATE":null,"FILE":"3101032","REF_FRAME":"TEME","TLE_LINE1":"1 45762U 20038AJ  21233.76635350  .00001433  00000-0  11509-3 0  9993","EPOCH":"2021-08-21T18:23:32.942400","MEAN_MOTION":"15.06404798","OBJECT_NAME":"STARLINK-1499","CENTER_NAME":"EARTH","OBJECT_TYPE":"PAYLOAD","ECCENTRICITY":"0.00023490","NORAD_CAT_ID":"45762","BSTAR":"0.00011509000000","SITE":"AFETR","MEAN_ANOMALY":"295.1505","INCLINATION":"53.0543","TIME_SYSTEM":"UTC","REV_AT_EPOCH":"6614","LAUNCH_DATE":"2020-06-13","COUNTRY_CODE":"US","ARG_OF_PERICENTER":"64.9728","ELEMENT_SET_NO":"999","EPHEMERIS_TYPE":"0","CLASSIFICATION_TYPE":"U","RCS_SIZE":"LARGE","OBJECT_ID":"2020-038AJ","MEAN_MOTION_DDOT":"0.0000000000000","GP_ID":"183213200","TLE_LINE2":"2 45762  53.0543 112.8053 0002349  64.9728 295.1505 15.06404798 66148","MEAN_MOTION_DOT":"0.00001433","SEMIMAJOR_AXIS":"6925.334","APOAPSIS":"548.826"},{"NORAD_CAT_ID":"45763","OBJECT_TYPE":"PAYLOAD","ECCENTRICITY":"0.00024320","INCLINATION":"53.0559","TIME_SYSTEM":"UTC","BSTAR":"-0.00008632100000","MEAN_ANOMALY":"320.2064","SITE":"AFETR","DECAY_DATE":null,"FILE":"3101110","REF_FRAME":"TEME","PERIAPSIS":"368.169","PERIOD":"91.943","RA_OF_ASC_NODE":"87.1696","MEAN_ELEMENT_THEORY":"SGP4","CENTER_NAME":"EARTH","TLE_LINE1":"1 45763U 20038AK  21234.02398767 -.00009611  00000-0 -86321-4 0  9995","OBJECT_NAME":"STARLINK-1501","MEAN_MOTION":"15.66193618","EPOCH":"2021-08-22T00:34:32.534688","RCS_SIZE":"LARGE","OBJECT_ID":"2020-038AK","MEAN_MOTION_DDOT":"0.0000000000000","EPHEMERIS_TYPE":"0","CLASSIFICATION_TYPE":"U","MEAN_MOTION_DOT":"-0.00009611","SEMIMAJOR_AXIS":"6747.945","APOAPSIS":"371.451","GP_ID":"183217583","TLE_LINE2":"2 45763  53.0559  87.1696 0002432  39.9130 320.2064 15.66193618 67430","REV_AT_EPOCH":"6743","ELEMENT_SET_NO":"999","LAUNCH_DATE":"2020-06-13","COUNTRY_CODE":"US","ARG_OF_PERICENTER":"39.9130"},{"MEAN_MOTION_DDOT":"0.0000000000000","OBJECT_ID":"2020-038AL","RCS_SIZE":"LARGE","CLASSIFICATION_TYPE":"U","EPHEMERIS_TYPE":"0","APOAPSIS":"548.572","SEMIMAJOR_AXIS":"6925.303","MEAN_MOTION_DOT":"-0.00004028","TLE_LINE2":"2 45764  53.0535 111.3422 0002027  83.4964 276.6255 15.06414771 67112","GP_ID":"183217587","REV_AT_EPOCH":"6711","ELEMENT_SET_NO":"999","ARG_OF_PERICENTER":"83.4964","COUNTRY_CODE":"US","LAUNCH_DATE":"2020-06-13","NORAD_CAT_ID":"45764","ECCENTRICITY":"0.00020270","OBJECT_TYPE":"PAYLOAD","TIME_SYSTEM":"UTC","INCLINATION":"53.0535","MEAN_ANOMALY":"276.6255","SITE":"AFETR","BSTAR":"-0.00025151000000","REF_FRAME":"TEME","FILE":"3101110","DECAY_DATE":null,"MEAN_ELEMENT_THEORY":"SGP4","RA_OF_ASC_NODE":"111.3422","PERIOD":"95.591","PERIAPSIS":"545.765","CENTER_NAME":"EARTH","TLE_LINE1":"1 45764U 20038AL  21234.09069377 -.00004028  00000-0 -25151-3 0  9995","MEAN_MOTION":"15.06414771","OBJECT_NAME":"STARLINK-1502","EPOCH":"2021-08-22T02:10:35.941728"}];
